{"type": "FeatureCollection", "features": [{"type": "Feature", "properties": {"norad_id": 2807, "name": "OPS 7218 (TRANSIT 16)", "group": "nnss", "lat": 61.45716474314066, "lon": -5.353319926588315, "alt_km": 1054.2836880921695, "timestamp": "2025-12-11T20:41:15.349606+00:00", "meta": {"OBJECT_NAME": "OPS 7218 (TRANSIT 16)", "OBJECT_ID": "1967-048A", "EPOCH": "2025-12-11T12:18:31.413312", "MEAN_MOTION": 13.50721902, "ECCENTRICITY": 0.00219028, "INCLINATION": 89.6732, "RA_OF_ASC_NODE": 354.057, "ARG_OF_PERICENTER": 117.3369, "MEAN_ANOMALY": 47.7586, "EPHEMERIS_TYPE": 0, "CLASSIFICATION_TYPE": "U", "NORAD_CAT_ID": 2807, "ELEMENT_SET_NO": 999, "REV_AT_EPOCH": 88259, "BSTAR": 0.00020958257, "MEAN_MOTION_DOT": 1.45e-06, "MEAN_MOTION_DDOT": 0}, "tle": {"line1": "1 02807U 67048A   25345.51286358  .00000145  00000+0  20958-3 0  9995", "line2": "2 02807  89.6732 354.0570 0021902 117.3369  47.7586 13.50721902882591"}}, "geometry": {"type": "Point", "coordinates": [-5.353319926588315, 61.45716474314066]}}, {"type": "Feature", "properties": {"norad_id": 2965, "name": "OPS 4947 (TRANSIT 17)", "group": "nnss", "lat": 62.818472054333746, "lon": -156.95952944036867, "alt_km": 1070.6014842376717, "timestamp": "2025-12-11T20:41:15.349628+00:00", "meta": {"OBJECT_NAME": "OPS 4947 (TRANSIT 17)", "OBJECT_ID": "1967-092A", "EPOCH": "2025-12-11T09:30:40.409856", "MEAN_MOTION": 13.53453015, "ECCENTRICITY": 0.00461041, "INCLINATION": 89.2497, "RA_OF_ASC_NODE": 24.5381, "ARG_OF_PERICENTER": 238.5289, "MEAN_ANOMALY": 131.4019, "EPHEMERIS_TYPE": 0, "CLASSIFICATION_TYPE": "U", "NORAD_CAT_ID": 2965, "ELEMENT_SET_NO": 999, "REV_AT_EPOCH": 87079, "BSTAR": 0.0002507644, "MEAN_MOTION_DOT": 1.81e-06, "MEAN_MOTION_DDOT": 0}, "tle": {"line1": "1 02965U 67092A   25345.39630104  .00000181  00000+0  25076-3 0  9993", "line2": "2 02965  89.2497  24.5381 0046104 238.5289 131.4019 13.53453015870798"}}, "geometry": {"type": "Point", "coordinates": [-156.95952944036867, 62.818472054333746]}}, {"type": "Feature", "properties": {"norad_id": 3133, "name": "OPS 7034 (TRANSIT 18)", "group": "nnss", "lat": -86.45345449859259, "lon": -85.91327531732442, "alt_km": 1084.9120988329214, "timestamp": "2025-12-11T20:41:15.349642+00:00", "meta": {"OBJECT_NAME": "OPS 7034 (TRANSIT 18)", "OBJECT_ID": "1968-012A", "EPOCH": "2025-12-11T13:05:39.509088", "MEAN_MOTION": 13.51565248, "ECCENTRICITY": 0.00737273, "INCLINATION": 90.0279, "RA_OF_ASC_NODE": 273.6354, "ARG_OF_PERICENTER": 172.5806, "MEAN_ANOMALY": 1.6392, "EPHEMERIS_TYPE": 0, "CLASSIFICATION_TYPE": "U", "NORAD_CAT_ID": 3133, "ELEMENT_SET_NO": 999, "REV_AT_EPOCH": 56902, "BSTAR": 0.00025524024, "MEAN_MOTION_DOT": 1.79e-06, "MEAN_MOTION_DDOT": 0}, "tle": {"line1": "1 03133U 68012A   25345.54559617  .00000179  00000+0  25524-3 0  9995", "line2": "2 03133  90.0279 273.6354 0073727 172.5806   1.6392 13.51565248569027"}}, "geometry": {"type": "Point", "coordinates": [-85.91327531732442, -86.45345449859259]}}, {"type": "Feature", "properties": {"norad_id": 4507, "name": "NNSS 19 (TRANSIT 19)", "group": "nnss", "lat": -63.50088300103858, "lon": 54.52211923721089, "alt_km": 996.04073658177, "timestamp": "2025-12-11T20:41:15.349653+00:00", "meta": {"OBJECT_NAME": "NNSS 19 (TRANSIT 19)", "OBJECT_ID": "1970-067A", "EPOCH": "2025-12-11T05:15:12.507264", "MEAN_MOTION": 13.51314509, "ECCENTRICITY": 0.0170634, "INCLINATION": 90.0055, "RA_OF_ASC_NODE": 234.5328, "ARG_OF_PERICENTER": 297.8266, "MEAN_ANOMALY": 60.5684, "EPHEMERIS_TYPE": 0, "CLASSIFICATION_TYPE": "U", "NORAD_CAT_ID": 4507, "ELEMENT_SET_NO": 999, "REV_AT_EPOCH": 72201, "BSTAR": 0.00023118437, "MEAN_MOTION_DOT": 1.72e-06, "MEAN_MOTION_DDOT": 0}, "tle": {"line1": "1 04507U 70067A   25345.21889476  .00000172  00000+0  23118-3 0  9997", "line2": "2 04507  90.0055 234.5328 0170634 297.8266  60.5684 13.51314509722018"}}, "geometry": {"type": "Point", "coordinates": [54.52211923721089, -63.50088300103858]}}, {"type": "Feature", "properties": {"norad_id": 6909, "name": "NNSS 20 (TRANSIT 20)", "group": "nnss", "lat": -74.39622230158793, "lon": 75.58247138385858, "alt_km": 1116.5650207142462, "timestamp": "2025-12-11T20:41:15.349664+00:00", "meta": {"OBJECT_NAME": "NNSS 20 (TRANSIT 20)", "OBJECT_ID": "1973-081A", "EPOCH": "2025-12-11T07:12:11.412576", "MEAN_MOTION": 13.71433253, "ECCENTRICITY": 0.01566046, "INCLINATION": 89.8562, "RA_OF_ASC_NODE": 255.0757, "ARG_OF_PERICENTER": 82.5797, "MEAN_ANOMALY": 279.313, "EPHEMERIS_TYPE": 0, "CLASSIFICATION_TYPE": "U", "NORAD_CAT_ID": 6909, "ELEMENT_SET_NO": 999, "REV_AT_EPOCH": 80341, "BSTAR": 0.00034370719, "MEAN_MOTION_DOT": 3.49e-06, "MEAN_MOTION_DDOT": 0}, "tle": {"line1": "1 06909U 73081A   25345.30013209  .00000349  00000+0  34371-3 0  9996", "line2": "2 06909  89.8562 255.0757 0156604  82.5797 279.3130 13.71433253803418"}}, "geometry": {"type": "Point", "coordinates": [75.58247138385858, -74.39622230158793]}}, {"type": "Feature", "properties": {"norad_id": 10457, "name": "TRANSAT", "group": "nnss", "lat": -77.73708475072551, "lon": -99.75216500256397, "alt_km": 1075.794581645292, "timestamp": "2025-12-11T20:41:15.349674+00:00", "meta": {"OBJECT_NAME": "TRANSAT", "OBJECT_ID": "1977-106A", "EPOCH": "2025-12-11T12:20:59.394912", "MEAN_MOTION": 13.48943412, "ECCENTRICITY": 0.00252792, "INCLINATION": 89.6482, "RA_OF_ASC_NODE": 78.6404, "ARG_OF_PERICENTER": 193.0415, "MEAN_ANOMALY": 178.3361, "EPHEMERIS_TYPE": 0, "CLASSIFICATION_TYPE": "U", "NORAD_CAT_ID": 10457, "ELEMENT_SET_NO": 999, "REV_AT_EPOCH": 36727, "BSTAR": 0.00019584744, "MEAN_MOTION_DOT": 1.33e-06, "MEAN_MOTION_DDOT": 0}, "tle": {"line1": "1 10457U 77106A   25345.51457633  .00000133  00000+0  19585-3 0  9998", "line2": "2 10457  89.6482  78.6404 0025279 193.0415 178.3361 13.48943412367276"}}, "geometry": {"type": "Point", "coordinates": [-99.75216500256397, -77.73708475072551]}}, {"type": "Feature", "properties": {"norad_id": 12458, "name": "NOVA 1", "group": "nnss", "lat": -60.164994419774985, "lon": -88.34499231115022, "alt_km": 1187.7722367814058, "timestamp": "2025-12-11T20:41:15.349684+00:00", "meta": {"OBJECT_NAME": "NOVA 1", "OBJECT_ID": "1981-044A", "EPOCH": "2025-12-11T14:05:31.831008", "MEAN_MOTION": 13.23278409, "ECCENTRICITY": 0.00158943, "INCLINATION": 89.8524, "RA_OF_ASC_NODE": 91.4014, "ARG_OF_PERICENTER": 106.8269, "MEAN_ANOMALY": 264.7673, "EPHEMERIS_TYPE": 0, "CLASSIFICATION_TYPE": "U", "NORAD_CAT_ID": 12458, "ELEMENT_SET_NO": 999, "REV_AT_EPOCH": 15171, "BSTAR": 0.00018167359, "MEAN_MOTION_DOT": 8.6e-07, "MEAN_MOTION_DDOT": 0}, "tle": {"line1": "1 12458U 81044A   25345.58717397  .00000086  00000+0  18167-3 0  9992", "line2": "2 12458  89.8524  91.4014 0015894 106.8269 264.7673 13.23278409151715"}}, "geometry": {"type": "Point", "coordinates": [-88.34499231115022, -60.164994419774985]}}, {"type": "Feature", "properties": {"norad_id": 15362, "name": "NOVA 3", "group": "nnss", "lat": 66.33512785382248, "lon": -99.19612347061437, "alt_km": 1184.1735883770134, "timestamp": "2025-12-11T20:41:15.349695+00:00", "meta": {"OBJECT_NAME": "NOVA 3", "OBJECT_ID": "1984-110A", "EPOCH": "2025-12-11T12:54:48.225024", "MEAN_MOTION": 13.23044458, "ECCENTRICITY": 0.00305747, "INCLINATION": 90.1224, "RA_OF_ASC_NODE": 80.5206, "ARG_OF_PERICENTER": 335.3518, "MEAN_ANOMALY": 36.093, "EPHEMERIS_TYPE": 0, "CLASSIFICATION_TYPE": "U", "NORAD_CAT_ID": 15362, "ELEMENT_SET_NO": 999, "REV_AT_EPOCH": 98683, "BSTAR": 0.00026740059, "MEAN_MOTION_DOT": 1.21e-06, "MEAN_MOTION_DDOT": 0}, "tle": {"line1": "1 15362U 84110A   25345.53805816  .00000121  00000+0  26740-3 0  9991", "line2": "2 15362  90.1224  80.5206 0030574 335.3518  36.0930 13.23044458986834"}}, "geometry": {"type": "Point", "coordinates": [-99.19612347061437, 66.33512785382248]}}, {"type": "Feature", "properties": {"norad_id": 15935, "name": "OSCAR 30", "group": "nnss", "lat": 25.062941341740075, "lon": -80.09017073361636, "alt_km": 1074.687211089814, "timestamp": "2025-12-11T20:41:15.349705+00:00", "meta": {"OBJECT_NAME": "OSCAR 30", "OBJECT_ID": "1985-066A", "EPOCH": "2025-12-11T14:35:49.847712", "MEAN_MOTION": 13.36078198, "ECCENTRICITY": 0.01694367, "INCLINATION": 90.165, "RA_OF_ASC_NODE": 99.8285, "ARG_OF_PERICENTER": 87.0662, "MEAN_ANOMALY": 286.0986, "EPHEMERIS_TYPE": 0, "CLASSIFICATION_TYPE": "U", "NORAD_CAT_ID": 15935, "ELEMENT_SET_NO": 999, "REV_AT_EPOCH": 96438, "BSTAR": 0.00025652898, "MEAN_MOTION_DOT": 1.53e-06, "MEAN_MOTION_DDOT": 0}, "tle": {"line1": "1 15935U 85066A   25345.60821583  .00000153  00000+0  25653-3 0  9992", "line2": "2 15935  90.1650  99.8285 0169436  87.0662 286.0986 13.36078198964380"}}, "geometry": {"type": "Point", "coordinates": [-80.09017073361636, 25.062941341740075]}}, {"type": "Feature", "properties": {"norad_id": 15936, "name": "OSCAR 24", "group": "nnss", "lat": -50.24341308801194, "lon": -87.92545246190804, "alt_km": 1224.5590967919816, "timestamp": "2025-12-11T20:41:15.349715+00:00", "meta": {"OBJECT_NAME": "OSCAR 24", "OBJECT_ID": "1985-066B", "EPOCH": "2025-12-11T14:13:05.832768", "MEAN_MOTION": 13.35935594, "ECCENTRICITY": 0.01705127, "INCLINATION": 90.179, "RA_OF_ASC_NODE": 92.2851, "ARG_OF_PERICENTER": 93.5447, "MEAN_ANOMALY": 279.6587, "EPHEMERIS_TYPE": 0, "CLASSIFICATION_TYPE": "U", "NORAD_CAT_ID": 15936, "ELEMENT_SET_NO": 999, "REV_AT_EPOCH": 96628, "BSTAR": 0.00020506005, "MEAN_MOTION_DOT": 1.24e-06, "MEAN_MOTION_DDOT": 0}, "tle": {"line1": "1 15936U 85066B   25345.59242862  .00000124  00000+0  20506-3 0  9998", "line2": "2 15936  90.1790  92.2851 0170512  93.5447 279.6587 13.35935594966289"}}, "geometry": {"type": "Point", "coordinates": [-87.92545246190804, -50.24341308801194]}}]}